NORAD_CAT_ID,OBJECT_NAME,OBJECT_TYPE,EPOCH,MEAN_MOTION,ECCENTRICITY,INCLINATION,RA_OF_ASC_NODE,ARG_OF_PERICENTER,MEAN_ANOMALY,BSTAR,MEAN_MOTION_DOT,MEAN_MOTION_DDOT,TLE_LINE0,TLE_LINE1,TLE_LINE2,SEMIMAJOR_AXIS,PERIOD,APOGEE,PERIGEE,DECAYED
54761.0,STARLINK-5202,PAYLOAD,2023-11-28 13:37:41,15.08837808,0.0001238,53.2155,179.8884,88.5869,271.5264,0.00017003,2.419e-05,0.0,0 STARLINK-5202,1 54761U 22175D   23332.56784023  .00002419  00000-0  17003-3 0  9998,2 54761  53.2155 179.8884 0001238  88.5869 271.5264 15.08837808 54294,6917.887,95.438,540.609,538.896,0.0
54761.0,STARLINK-5202,PAYLOAD,2023-11-28 19:59:13,15.08845513,0.00012,53.2154,178.7015,90.803,269.3099,0.00035693,5.398e-05,0.0,0 STARLINK-5202,1 54761U 22175D   23332.83279628  .00005398  00000-0  35693-3 0  9992,2 54761  53.2154 178.7015 0001200  90.8030 269.3099 15.08845513 52170,6917.864,95.437,540.559,538.898,0.0
54761.0,STARLINK-5202,PAYLOAD,2023-11-29 19:50:00,15.08843293,0.0001311,53.2152,174.2433,86.1861,273.9281,0.00013442,1.852e-05,0.0,0 STARLINK-5202,1 54761U 22175D   23333.82639875  .00001852  00000-0  13442-3 0  9995,2 54761  53.2152 174.2433 0001311  86.1861 273.9281 15.08843293 52320,6917.87,95.437,540.642,538.828,0.0
54761.0,STARLINK-5202,PAYLOAD,2023-11-30 19:40:48,15.0884306,0.00016,53.2158,169.7835,72.0376,288.079,8.4579e-05,1.058e-05,0.0,0 STARLINK-5202,1 54761U 22175D   23334.82000120  .00001058  00000-0  84579-4 0  9999,2 54761  53.2158 169.7835 0001600  72.0376 288.0790 15.08843060 52477,6917.871,95.437,540.843,538.629,0.0
54761.0,STARLINK-5202,PAYLOAD,2023-12-01 19:31:34,15.08848407,0.0001457,53.2159,165.3206,92.2241,267.8918,0.00024623,3.634e-05,0.0,0 STARLINK-5202,1 54761U 22175D   23335.81359613  .00003634  00000-0  24623-3 0  9998,2 54761  53.2159 165.3206 0001457  92.2241 267.8918 15.08848407 54780,6917.855,95.437,540.728,538.712,0.0
54761.0,STARLINK-5202,PAYLOAD,2023-12-02 13:00:49,15.0884504,0.0001574,53.2165,162.0496,95.5361,264.5811,0.00011776,1.587e-05,0.0,0 STARLINK-5202,1 54761U 22175D   23336.54223523  .00001587  00000-0  11776-3 0  9999,2 54761  53.2165 162.0496 0001574  95.5361 264.5811 15.08845040 54899,6917.865,95.437,540.819,538.641,0.0
54761.0,STARLINK-5202,PAYLOAD,2023-12-02 19:22:21,15.08843349,0.00014,53.2151,160.8586,85.1642,274.951,5.5177e-05,5.9e-06,0.0,0 STARLINK-5202,1 54761U 22175D   23336.80719497  .00000590  00000-0  55177-4 0  9995,2 54761  53.2151 160.8586 0001400  85.1642 274.9510 15.08843349 52771,6917.87,95.437,540.704,538.767,0.0
54761.0,STARLINK-5202,PAYLOAD,2023-12-03 12:51:36,15.08833525,0.0001392,53.2149,157.5864,99.987,260.1279,-0.00010489,-1.957e-05,0.0,0 STARLINK-5202,1 54761U 22175D   23337.53584022 -.00001957  00000-0 -10489-3 0  9996,2 54761  53.2149 157.5864 0001392  99.9870 260.1279 15.08833525 55043,6917.9,95.438,540.728,538.802,0.0
54761.0,STARLINK-5202,PAYLOAD,2023-12-03 17:37:46,15.08836429,0.0001292,53.2159,156.6947,101.5985,258.5152,-0.00013227,-2.392e-05,0.0,0 STARLINK-5202,1 54761U 22175D   23337.73456622 -.00002392  00000-0 -13227-3 0  9999,2 54761  53.2159 156.6947 0001292 101.5985 258.5152 15.08836429 52912,6917.891,95.438,540.65,538.863,0.0
54761.0,STARLINK-5202,PAYLOAD,2023-12-04 11:07:01,15.08830657,0.0001287,53.2159,153.4238,98.1579,261.9559,-8.5195e-06,-4.23e-06,0.0,0 STARLINK-5202,1 54761U 22175D   23338.46320916 -.00000423  00000-0 -85195-5 0  9994,2 54761  53.2159 153.4238 0001287  98.1579 261.9559 15.08830657 55182,6917.909,95.438,540.664,538.884,0.0
54761.0,STARLINK-5202,PAYLOAD,2023-12-05 20:30:06,15.08836156,0.0001177,53.2161,147.181,92.4578,267.6549,0.00012664,1.728e-05,0.0,0 STARLINK-5202,1 54761U 22175D   23339.85424707  .00001728  00000-0  12664-3 0  9997,2 54761  53.2161 147.1810 0001177  92.4578 267.6549 15.08836156 55390,6917.892,95.438,540.571,538.943,0.0
54761.0,STARLINK-5202,PAYLOAD,2023-12-06 10:48:34,15.08843267,0.0001297,53.2159,144.5031,94.0197,266.0944,6.4474e-05,7.38e-06,0.0,0 STARLINK-5202,1 54761U 22175D   23340.45040179  .00000738  00000-0  64474-4 0  9999,2 54761  53.2159 144.5031 0001297  94.0197 266.0944 15.08843267 55484,6917.87,95.437,540.633,538.838,0.0
54761.0,STARLINK-5202,PAYLOAD,2023-12-06 20:20:53,15.08846806,0.0001302,53.2159,142.7192,95.8482,264.2659,8.3587e-05,1.043e-05,0.0,0 STARLINK-5202,1 54761U 22175D   23340.84783742  .00001043  00000-0  83587-4 0  9998,2 54761  53.2159 142.7192 0001302  95.8482 264.2659 15.08846806 55547,6917.86,95.437,540.625,538.824,0.0
54761.0,STARLINK-5202,PAYLOAD,2023-12-07 10:39:22,15.08838057,0.0001247,53.2161,140.044,97.2706,262.8427,1.6441e-05,-2.6e-07,0.0,0 STARLINK-5202,1 54761U 22175D   23341.44400481 -.00000026  00000-0  16441-4 0  9997,2 54761  53.2161 140.0440 0001247  97.2706 262.8427 15.08838057 53476,6917.886,95.438,540.614,538.889,0.0
54761.0,STARLINK-5202,PAYLOAD,2023-12-08 13:40:55,15.08841348,0.000168,53.2153,134.9878,108.3128,251.8047,-2.9397e-06,-3.35e-06,0.0,0 STARLINK-5202,1 54761U 22175D   23342.57008179 -.00000335  00000-0 -29397-5 0  9999,2 54761  53.2153 134.9878 0001680 108.3128 251.8047 15.08841348 55809,6917.876,95.437,540.903,538.579,0.0
54761.0,STARLINK-5202,PAYLOAD,2023-12-08 20:02:27,15.08842004,0.0001478,53.2147,133.7979,108.5688,251.5465,-3.4732e-06,-3.43e-06,0.0,0 STARLINK-5202,1 54761U 22175D   23342.83504071 -.00000343  00000-0 -34732-5 0  9998,2 54761  53.2147 133.7979 0001478 108.5688 251.5465 15.08842004 53684,6917.874,95.437,540.762,538.717,0.0
54761.0,STARLINK-5202,PAYLOAD,2023-12-09 13:31:42,15.08838172,0.0001333,53.2157,130.5265,100.7949,259.3193,2.3788e-05,9.1e-07,0.0,0 STARLINK-5202,1 54761U 22175D   23343.56368188  .00000091  00000-0  23788-4 0  9992,2 54761  53.2157 130.5265 0001333 100.7949 259.3193 15.08838172 55959,6917.886,95.438,540.673,538.829,0.0
54761.0,STARLINK-5202,PAYLOAD,2023-12-10 10:11:43,15.08836615,0.0001282,53.216,126.6609,97.6761,262.4376,-1.4334e-05,-5.16e-06,0.0,0 STARLINK-5202,1 54761U 22175D   23344.42480551 -.00000516  00000-0 -14334-4 0  9998,2 54761  53.2160 126.6609 0001282  97.6761 262.4376 15.08836615 53923,6917.891,95.438,540.643,538.869,0.0
54761.0,STARLINK-5202,PAYLOAD,2023-12-10 14:57:52,15.08837578,0.0001224,53.2166,125.7686,97.6739,262.4392,-1.5086e-05,-5.28e-06,0.0,0 STARLINK-5202,1 54761U 22175D   23344.62352519 -.00000528  00000-0 -15086-4 0  9990,2 54761  53.2166 125.7686 0001224  97.6739 262.4392 15.08837578 56116,6917.888,95.438,540.6,538.906,0.0
54761.0,STARLINK-5202,PAYLOAD,2023-12-11 14:48:39,15.08834999,0.0001306,53.2173,121.3079,104.0701,256.0436,2.8447e-05,1.65e-06,0.0,0 STARLINK-5202,1 54761U 22175D   23345.61712675  .00000165  00000-0  28447-4 0  9993,2 54761  53.2173 121.3079 0001306 104.0701 256.0436 15.08834999 56263,6917.896,95.438,540.664,538.857,0.0
54761.0,STARLINK-5202,PAYLOAD,2023-12-12 13:04:04,15.08833419,0.0001236,53.2171,117.1445,100.0927,260.0205,6.8296e-06,-1.79e-06,0.0,0 STARLINK-5202,1 54761U 22175D   23346.54449192 -.00000179  00000-0  68296-5 0  9990,2 54761  53.2171 117.1445 0001236 100.0927 260.0205 15.08833419 56400,6917.901,95.438,540.621,538.91,0.0
54761.0,STARLINK-5202,PAYLOAD,2023-12-12 16:14:50,15.08835833,0.0001206,53.2171,116.5511,91.1572,268.9559,3.0276e-05,1.94e-06,0.0,0 STARLINK-5202,1 54761U 22175D   23346.67697060  .00000194  00000-0  30276-4 0  9995,2 54761  53.2171 116.5511 0001206  91.1572 268.9559 15.08835833 54263,6917.893,95.438,540.592,538.924,0.0
54761.0,STARLINK-5202,PAYLOAD,2023-12-13 14:30:13,15.08842768,0.0001251,53.217,112.3884,88.0412,272.0723,0.00010446,1.375e-05,0.0,0 STARLINK-5202,1 54761U 22175D   23347.60432402  .00001375  00000-0  10446-3 0  9994,2 54761  53.2170 112.3884 0001251  88.0412 272.0723 15.08842768 56566,6917.872,95.437,540.602,538.872,0.0
54761.0,STARLINK-5202,PAYLOAD,2023-12-13 16:05:36,15.08844119,0.0001281,53.2172,112.092,84.2384,275.8754,0.00011356,1.52e-05,0.0,0 STARLINK-5202,1 54761U 22175D   23347.67056313  .00001520  00000-0  11356-3 0  9997,2 54761  53.2172 112.0920 0001281  84.2384 275.8754 15.08844119 54414,6917.868,95.437,540.619,538.847,0.0
54761.0,STARLINK-5202,PAYLOAD,2023-12-14 11:10:15,15.08836236,0.0001899,53.2184,108.5188,58.2969,301.8208,2.6538e-05,1.34e-06,0.0,0 STARLINK-5202,1 54761U 22175D   23348.46545329  .00000134  00000-0  26538-4 0  9994,2 54761  53.2184 108.5188 0001899  58.2969 301.8208 15.08836236 54536,6917.892,95.438,541.071,538.443,0.0
54761.0,STARLINK-5202,PAYLOAD,2023-12-14 14:21:00,15.08842171,0.0001238,53.2173,107.9253,88.2648,271.8486,2.3996e-05,9.4e-07,0.0,0 STARLINK-5202,1 54761U 22175D   23348.59792741  .00000094  00000-0  23996-4 0  9990,2 54761  53.2173 107.9253 0001238  88.2648 271.8486 15.08842171 56715,6917.874,95.437,540.595,538.882,0.0
54761.0,STARLINK-5202,PAYLOAD,2023-12-14 15:56:24,15.08843068,0.0001325,53.2177,107.628,78.7934,281.3207,3.9331e-05,3.38e-06,0.0,0 STARLINK-5202,1 54761U 22175D   23348.66416692  .00000338  00000-0  39331-4 0  9997,2 54761  53.2177 107.6280 0001325  78.7934 281.3207 15.08843068 54569,6917.871,95.437,540.653,538.819,0.0
54761.0,STARLINK-5202,PAYLOAD,2023-12-15 04:39:29,15.08837212,0.0001465,53.2183,105.2566,71.547,288.5681,-7.2901e-05,-1.448e-05,0.0,0 STARLINK-5202,1 54761U 22175D   23349.19409619 -.00001448  00000-0 -72901-4 0  9992,2 54761  53.2183 105.2566 0001465  71.5470 288.5681 15.08837212 54646,6917.889,95.438,540.767,538.74,0.0
54761.0,STARLINK-5202,PAYLOAD,2023-12-15 14:11:48,15.08834727,0.0001427,53.2171,103.4703,76.1492,283.9658,-9.7262e-05,-1.835e-05,0.0,0 STARLINK-5202,1 54761U 22175D   23349.59153896 -.00001835  00000-0 -97262-4 0  9996,2 54761  53.2171 103.4703 0001427  76.1492 283.9658 15.08834727 56866,6917.897,95.438,540.749,538.774,0.0
54761.0,STARLINK-5202,PAYLOAD,2023-12-16 10:51:48,15.08841429,0.0001091,53.2187,99.5964,104.2678,255.8435,7.7009e-05,9.38e-06,0.0,0 STARLINK-5202,1 54761U 22175D   23350.45264703  .00000938  00000-0  77009-4 0  9991,2 54761  53.2187  99.5964 0001091 104.2678 255.8435 15.08841429 54836,6917.876,95.437,540.496,538.986,0.0
